{
  "norad_id": 54175,
  "name": "STARLINK-5256",
  "history": [
    {
      "epoch": "2026-03-28T19:23:25.045728Z",
      "apogee_km": 540.6175100311939,
      "perigee_km": 538.8668715231761,
      "latitude_deg": -3.982671987749509e-05,
      "longitude_deg": 161.23004636327641,
      "height_km": 540.720256756497,
      "semi_major_axis_km": 6917.879190777185,
      "eccentricity": 0.00012653,
      "inclination_deg": 53.2167,
      "raan_deg": 278.3075,
      "arg_perigee_deg": 95.3945,
      "mean_anomaly_deg": 264.7191,
      "mean_motion_rev_day": 15.08840392
    },
    {
      "epoch": "2026-03-30T04:46:30.844704Z",
      "apogee_km": 540.5629493155193,
      "perigee_km": 538.9289453633583,
      "latitude_deg": -3.5256980015957474e-05,
      "longitude_deg": 12.83891708688172,
      "height_km": 540.6580159831881,
      "semi_major_axis_km": 6917.882947339439,
      "eccentricity": 0.0001181,
      "inclination_deg": 53.2171,
      "raan_deg": 272.0616,
      "arg_perigee_deg": 91.1322,
      "mean_anomaly_deg": 268.9805,
      "mean_motion_rev_day": 15.08839163
    },
    {
      "epoch": "2026-03-30T04:46:30.845568Z",
      "apogee_km": 540.5631568520084,
      "perigee_km": 538.92873782687,
      "latitude_deg": -3.803968768540372e-05,
      "longitude_deg": 12.838911408014338,
      "height_km": 540.6580200860246,
      "semi_major_axis_km": 6917.882947339439,
      "eccentricity": 0.00011813,
      "inclination_deg": 53.2171,
      "raan_deg": 272.0616,
      "arg_perigee_deg": 91.1322,
      "mean_anomaly_deg": 268.9805,
      "mean_motion_rev_day": 15.08839163
    },
    {
      "epoch": "2026-03-30T11:08:03.842304Z",
      "apogee_km": 540.7025699901596,
      "perigee_km": 538.822146586589,
      "latitude_deg": 5.5668005294352735e-05,
      "longitude_deg": -83.99806667002325,
      "height_km": 540.739583054349,
      "semi_major_axis_km": 6917.899358288374,
      "eccentricity": 0.00013591,
      "inclination_deg": 53.2177,
      "raan_deg": 270.8732,
      "arg_perigee_deg": 94.9722,
      "mean_anomaly_deg": 265.1426,
      "mean_motion_rev_day": 15.08833794
    },
    {
      "epoch": "2026-03-30T20:40:22.800864Z",
      "apogee_km": 540.685516978313,
      "perigee_km": 538.841204742108,
      "latitude_deg": 4.6840998619517955e-05,
      "longitude_deg": 130.74709686097634,
      "height_km": 540.7319826908839,
      "semi_major_axis_km": 6917.900360860211,
      "eccentricity": 0.0001333,
      "inclination_deg": 53.2173,
      "raan_deg": 269.0891,
      "arg_perigee_deg": 94.5338,
      "mean_anomaly_deg": 265.5807,
      "mean_motion_rev_day": 15.08833466
    },
    {
      "epoch": "2026-04-01T04:28:05.402496Z",
      "apogee_km": 540.6770300832377,
      "perigee_km": 538.8195778791196,
      "latitude_deg": 1.5491965071487864e-05,
      "longitude_deg": 6.566387431165928,
      "height_km": 540.687955871969,
      "semi_major_axis_km": 6917.885303981178,
      "eccentricity": 0.00013425,
      "inclination_deg": 53.2173,
      "raan_deg": 263.1417,
      "arg_perigee_deg": 92.7114,
      "mean_anomaly_deg": 267.4032,
      "mean_motion_rev_day": 15.08838392
    },
    {
      "epoch": "2026-04-02T20:12:43.190784Z",
      "apogee_km": 540.632167862831,
      "perigee_km": 538.8086206537046,
      "latitude_deg": -1.0617087104067086e-05,
      "longitude_deg": 121.34219730690886,
      "height_km": 540.6356085190794,
      "semi_major_axis_km": 6917.857394258268,
      "eccentricity": 0.0001318,
      "inclination_deg": 53.217,
      "raan_deg": 255.7072,
      "arg_perigee_deg": 91.2247,
      "mean_anomaly_deg": 268.8896,
      "mean_motion_rev_day": 15.08847523
    },
    {
      "epoch": "2026-04-02T20:12:43.191648Z",
      "apogee_km": 540.6320295056839,
      "perigee_km": 538.8087590108526,
      "latitude_deg": -8.770689685672397e-06,
      "longitude_deg": 121.3421950699075,
      "height_km": 540.6356055619086,
      "semi_major_axis_km": 6917.857394258268,
      "eccentricity": 0.00013178,
      "inclination_deg": 53.217,
      "raan_deg": 255.7072,
      "arg_perigee_deg": 91.2247,
      "mean_anomaly_deg": 268.8896,
      "mean_motion_rev_day": 15.08847523
    },
    {
      "epoch": "2026-04-03T20:03:30.826944Z",
      "apogee_km": 540.6992683285725,
      "perigee_km": 538.7691822567167,
      "latitude_deg": 2.8477376965392104e-06,
      "longitude_deg": 118.20327971615596,
      "height_km": 540.6416577138215,
      "semi_major_axis_km": 6917.871225292644,
      "eccentricity": 0.0001395,
      "inclination_deg": 53.2163,
      "raan_deg": 251.2461,
      "arg_perigee_deg": 90.706,
      "mean_anomaly_deg": 269.4092,
      "mean_motion_rev_day": 15.08842998
    },
    {
      "epoch": "2026-04-04T04:00:26.521632Z",
      "apogee_km": 540.6969502430929,
      "perigee_km": 538.7794535946259,
      "latitude_deg": 6.484470362667057e-06,
      "longitude_deg": -2.842224734560036,
      "height_km": 540.6452007291232,
      "semi_major_axis_km": 6917.87520191886,
      "eccentricity": 0.00013859,
      "inclination_deg": 53.2161,
      "raan_deg": 249.7591,
      "arg_perigee_deg": 90.6853,
      "mean_anomaly_deg": 269.4298,
      "mean_motion_rev_day": 15.08841697
    },
    {
      "epoch": "2026-04-05T13:23:32.998848Z",
      "apogee_km": 540.690769068975,
      "perigee_km": 538.8453487154648,
      "latitude_deg": 1.7355365135720066e-05,
      "longitude_deg": -151.23588551807654,
      "height_km": 540.7096793513515,
      "semi_major_axis_km": 6917.905058892219,
      "eccentricity": 0.00013338,
      "inclination_deg": 53.2168,
      "raan_deg": 243.5135,
      "arg_perigee_deg": 92.8542,
      "mean_anomaly_deg": 267.2603,
      "mean_motion_rev_day": 15.08831929
    },
    {
      "epoch": "2026-04-05T16:34:19.286400Z",
      "apogee_km": 540.6845466813265,
      "perigee_km": 538.8486734212911,
      "latitude_deg": 7.741014128435236e-05,
      "longitude_deg": 160.34611567327394,
      "height_km": 540.7024339967212,
      "semi_major_axis_km": 6917.9036100513085,
      "eccentricity": 0.00013269,
      "inclination_deg": 53.217,
      "raan_deg": 242.9189,
      "arg_perigee_deg": 92.5055,
      "mean_anomaly_deg": 267.609,
      "mean_motion_rev_day": 15.08832403
    },
    {
      "epoch": "2026-04-07T08:18:57.587904Z",
      "apogee_km": 540.6078402945805,
      "perigee_km": 538.9128170911044,
      "latitude_deg": 3.8303455969881246e-05,
      "longitude_deg": -84.87833401349323,
      "height_km": 540.5570276561365,
      "semi_major_axis_km": 6917.897328692842,
      "eccentricity": 0.00012251,
      "inclination_deg": 53.2174,
      "raan_deg": 235.4863,
      "arg_perigee_deg": 83.2783,
      "mean_anomaly_deg": 276.8349,
      "mean_motion_rev_day": 15.08834458
    },
    {
      "epoch": "2026-04-08T14:31:17.558112Z",
      "apogee_km": 540.6614105108738,
      "perigee_km": 538.8508595195781,
      "latitude_deg": 8.47098530676844e-06,
      "longitude_deg": 175.14883307312,
      "height_km": 540.6069728013711,
      "semi_major_axis_km": 6917.893135015225,
      "eccentricity": 0.00013086,
      "inclination_deg": 53.218,
      "raan_deg": 229.8372,
      "arg_perigee_deg": 87.1505,
      "mean_anomaly_deg": 272.9637,
      "mean_motion_rev_day": 15.0883583
    },
    {
      "epoch": "2026-04-09T12:46:41.264256Z",
      "apogee_km": 540.6346510736767,
      "perigee_km": 538.8609054165336,
      "latitude_deg": 1.8166752883823608e-07,
      "longitude_deg": -163.77759692664267,
      "height_km": 540.6247052518715,
      "semi_major_axis_km": 6917.884778245105,
      "eccentricity": 0.0001282,
      "inclination_deg": 53.2173,
      "raan_deg": 225.6736,
      "arg_perigee_deg": 88.7804,
      "mean_anomaly_deg": 271.3335,
      "mean_motion_rev_day": 15.08838564
    },
    {
      "epoch": "2026-04-09T12:46:41.265120Z",
      "apogee_km": 540.6347894313712,
      "perigee_km": 538.8607670588381,
      "latitude_deg": -1.6646303668165304e-06,
      "longitude_deg": -163.7776019092652,
      "height_km": 540.6247023070741,
      "semi_major_axis_km": 6917.884778245105,
      "eccentricity": 0.00012822,
      "inclination_deg": 53.2173,
      "raan_deg": 225.6736,
      "arg_perigee_deg": 88.7804,
      "mean_anomaly_deg": 271.3335,
      "mean_motion_rev_day": 15.08838564
    },
    {
      "epoch": "2026-04-11T14:03:39.016800Z",
      "apogee_km": 540.6945927886864,
      "perigee_km": 538.832293989326,
      "latitude_deg": -2.6905382665380063e-05,
      "longitude_deg": 165.7398737342901,
      "height_km": 540.6797174273822,
      "semi_major_axis_km": 6917.900443389006,
      "eccentricity": 0.0001346,
      "inclination_deg": 53.2172,
      "raan_deg": 216.4557,
      "arg_perigee_deg": 91.2657,
      "mean_anomaly_deg": 268.8489,
      "mean_motion_rev_day": 15.08833439
    },
    {
      "epoch": "2026-04-13T07:23:40.452576Z",
      "apogee_km": 540.6986452852698,
      "perigee_km": 538.8362070556559,
      "latitude_deg": 1.345921008505541e-05,
      "longitude_deg": -103.69719568777423,
      "height_km": 540.7429482138535,
      "semi_major_axis_km": 6917.904426170463,
      "eccentricity": 0.00013461,
      "inclination_deg": 53.2174,
      "raan_deg": 208.7221,
      "arg_perigee_deg": 94.9157,
      "mean_anomaly_deg": 265.1989,
      "mean_motion_rev_day": 15.08832136
    },
    {
      "epoch": "2026-04-14T10:25:13.097568Z",
      "apogee_km": 540.7412827297985,
      "perigee_km": 538.4824993618931,
      "latitude_deg": 1.696926710883545e-06,
      "longitude_deg": -155.24713165658326,
      "height_km": 540.3341710112886,
      "semi_major_axis_km": 6917.748891045845,
      "eccentricity": 0.00016326,
      "inclination_deg": 53.2176,
      "raan_deg": 203.6681,
      "arg_perigee_deg": 81.183,
      "mean_anomaly_deg": 278.9347,
      "mean_motion_rev_day": 15.08883022
    },
    {
      "epoch": "2026-04-15T13:26:47.549184Z",
      "apogee_km": 540.6754787583168,
      "perigee_km": 538.8436197520741,
      "latitude_deg": 1.2502483152558736e-05,
      "longitude_deg": 153.19520185674543,
      "height_km": 540.6477243862593,
      "semi_major_axis_km": 6917.896549255195,
      "eccentricity": 0.0001324,
      "inclination_deg": 53.2177,
      "raan_deg": 198.6139,
      "arg_perigee_deg": 89.524,
      "mean_anomaly_deg": 270.5904,
      "mean_motion_rev_day": 15.08834713
    }
  ]
}